GLOBALSTAR M068         
1 32266U 07048D   25064.61951458 -.00000094  00000+0  56800-4 0  9990
2 32266  51.9865 257.9663 0000050 183.2176 218.5344 12.62816386804479
GLOBALSTAR M079         
1 37188U 10054A   25064.54088051 -.00000107  00000+0 -18516-4 0  9999
2 37188  52.0028  95.3022 0000629  92.7598  40.0635 12.62271468663365
GLOBALSTAR M074         
1 37189U 10054B   25064.57524145 -.00000105  00000+0 -60425-5 0  9997
2 37189  52.0003  94.5371 0000520 131.3243  36.7226 12.62267022664049
GLOBALSTAR M076         
1 37190U 10054C   25064.51852949 -.00000102  00000+0  10500-4 0  9993
2 37190  52.0017  94.8672 0000786 115.4259  37.5720 12.62278286663688
GLOBALSTAR M077         
1 37191U 10054D   25064.66849959 -.00000113  00000+0 -48734-4 0  9990
2 37191  52.0078  51.2395 0000378  92.8046  79.6123 12.62271294664816
GLOBALSTAR M075         
1 37192U 10054E   25064.69453177 -.00000083  00000+0  11857-3 0  9997
2 37192  51.9940 136.6478 0000601 118.4481  54.3598 12.62262151663301
GLOBALSTAR M073         
1 37193U 10054F   25064.37274120 -.00000108  00000+0 -21151-4 0  9990
2 37193  52.0067  51.3678 0000494  92.4829  55.1390 12.62263873664724
GLOBALSTAR M083         
1 37739U 11033A   25064.54921525 -.00000084  00000+0  11018-3 0  9993
2 37739  51.9887 359.7030 0000584  57.6654 113.8754 12.62259908634125
GLOBALSTAR M088         
1 37740U 11033B   25064.57139824 -.00000083  00000+0  11796-3 0  9993
2 37740  51.9714 265.2160 0000848  80.6932 312.0177 12.62263853629310
GLOBALSTAR M091         
1 37741U 11033C   25064.50719766 -.00000083  00000+0  11364-3 0  9997
2 37741  51.9977 228.7806 0000848  78.7847 321.2029 12.62265520630094
GLOBALSTAR M085         
1 37742U 11033D   25064.50274867 -.00000080  00000+0  13156-3 0  9994
2 37742  51.9859 179.9238 0000721  93.6586 346.1313 12.62265867630609
GLOBALSTAR M081         
1 37743U 11033E   25064.52922806 -.00000085  00000+0  10367-3 0  9996
2 37743  51.9949 182.5649 0000932  98.5867 342.1536 12.62261241630757
GLOBALSTAR M089         
1 37744U 11033F   25064.58326822 -.00000078  00000+0  14238-3 0  9992
2 37744  51.9923 136.6497 0000783 130.1710  15.9399 12.62266902631601
GLOBALSTAR M084         
1 38040U 11080A   25064.28191706 -.00000080  00000+0  13111-3 0  9994
2 38040  52.0038   4.7979 0000558 106.5442  49.6423 12.62262910609544
GLOBALSTAR M080         
1 38041U 11080B   25064.25412464 -.00000087  00000+0  93354-4 0  9994
2 38041  52.0090   6.4550 0000843 106.8130  41.6623 12.62277561609666
GLOBALSTAR M082         
1 38042U 11080C   25064.79264218 -.00000072  00000+0  17832-3 0  9996
2 38042  52.0093 320.2514 0000656  37.6721 340.7710 12.62263416610617
GLOBALSTAR M092         
1 38043U 11080D   25064.55578697 -.00000113  00000+0 -51202-4 0  9997
2 38043  52.0095  51.3386 0000280 109.5555  32.3211 12.62273046608860
GLOBALSTAR M090         
1 38044U 11080E   25064.45716009 -.00000077  00000+0  15100-3 0  9992
2 38044  51.9900 315.2159 0000746  61.8160 110.3985 12.62267534610518
GLOBALSTAR M086         
1 38045U 11080F   25064.76821896 -.00000079  00000+0  13819-3 0  9995
2 38045  51.9913 314.8114 0001601  84.6086 302.2194 12.62267531610601
GLOBALSTAR M097         
1 39072U 13005A   25064.47222531 -.00000086  00000+0  10089-3 0  9998
2 39072  52.0025 230.1523 0001025  86.4233 273.6751 12.62270785557713
GLOBALSTAR M093         
1 39073U 13005B   25064.60370491 -.00000085  00000+0  10576-3 0  9993
2 39073  51.9792 223.2170 0000987  87.5484 272.5495 12.62262236557681
GLOBALSTAR M094         
1 39074U 13005C   25064.52484792 -.00000086  00000+0  98832-4 0  9998
2 39074  51.9953 137.7385 0000737  92.9289 267.1662 12.62268744559288
GLOBALSTAR M096         
1 39075U 13005D   25064.53810461 -.00000079  00000+0  13996-3 0  9995
2 39075  52.0064 186.1312 0000842  87.6966 272.3997 12.62268817558203
GLOBALSTAR M078         
1 39076U 13005E   25064.27346212 -.00000092  00000+0  67327-4 0  9998
2 39076  51.9859 271.5862 0000674   7.8509 352.2368 12.62259851556793
GLOBALSTAR M095         
1 39077U 13005F   25064.53791035 -.00000083  00000+0  11391-3 0  9994
2 39077  51.9783 268.0323 0000946  50.0787 310.0163 12.62267470556682
GLOBALSTAR M087         
1 52888U 22064A   25064.33103927 -.00000104  00000+0 -22035-5 0  9993
2 52888  51.9798  50.0632 0000368  62.1168 297.9736 12.62269118131926
